MAKERSAT 0              
1 43016U 17073D   26127.92537855  .00019987  00000+0  56058-3 0  9994
2 43016  97.4679  10.1726 0112505  56.8724 304.3253 15.30393387460306
SIRION PATHFINDER-2     
1 43759U 18099B   26128.07318356  .00004224  00000+0  23472-3 0  9999
2 43759  97.4283 178.0889 0010477  82.2038 278.0383 15.14184754406557
CORVUS BC4              
1 43767U 18099K   26128.09199619  .00003105  00000+0  18352-3 0  9997
2 43767  97.4098 172.2494 0009671 132.8654 227.3391 15.12169903406348
M2 PATHFINDER           
1 45727U 20037E   26128.07720355  .00002584  00000+0  18895-3 0  9997
2 45727  97.8164 318.8598 0010500 290.6777  69.3323 15.04500445319465
NETSAT-4                
1 46504U 20068U   26127.98634465  .00013964  00000+0  32339-3 0  9993
2 46504  97.8629 133.0412 0007675 103.2822 256.9280 15.42546892309571
NETSAT-3                
1 46505U 20068V   26128.22070176  .00014950  00000+0  36043-3 0  9997
2 46505  97.8672 131.5632 0007385 115.2383 244.9629 15.41318839309526
NETSAT-1                
1 46506U 20068W   26128.21747645  .00010555  00000+0  32651-3 0  9997
2 46506  97.8760 126.3502 0006452 134.2535 225.9236 15.33678766309170
NETSAT-2                
1 46507U 20068X   26127.55840465  .00016592  00000+0  36194-3 0  9991
2 46507  97.8641 132.3387 0005983 124.7152 235.4659 15.44302270309467
GREENCUBE (IO-117)      
1 53109U 22080E   26127.87446985 -.00000003  00000+0  00000+0 0  9991
2 53109  70.1441 312.2716 0008862 299.1563  60.8210  6.42583336 89473
SITRO-AIS 5 (KATYS)     
1 57176U 23091L   26128.14792808  .00009297  00000+0  33687-3 0  9995
2 57176  97.5078 191.6914 0010342 238.4184 121.6046 15.28551342158229
SITRO-AIS 6 (CHIRKIN)   
1 57192U 23091AC  26128.16799281  .00004977  00000+0  20088-3 0  9998
2 57192  97.5086 191.0373 0010539 242.4505 117.5662 15.25213512158183
SITRO-AIS 8 (ANOKHIN)   
1 57193U 23091AD  26128.16735906  .00010376  00000+0  34768-3 0  9993
2 57193  97.5073 193.1425 0009649 233.4903 126.5450 15.31074500158323
SITRO-AIS 7 (FARTUSHNIY)
1 57194U 23091AE  26128.16321435  .00004582  00000+0  18682-3 0  9991
2 57194  97.5085 190.8775 0010375 243.6606 116.3567 15.24918865158172
SITRO-AIS 10 (BURDAEV)  
1 57199U 23091AK  26128.16623736  .00015832  00000+0  43726-3 0  9992
2 57199  97.5094 197.7976 0006585 203.0716 157.0233 15.37128930158617
SITRO-AIS 9 (SHCHUKIN)  
1 57201U 23091AM  26128.18052420  .00015511  00000+0  43469-3 0  9992
2 57201  97.5092 197.5721 0006776 203.6147 156.4787 15.36677215158601
SITRO-AIS 12 (SMIRENNIY)
1 57204U 23091AQ  26128.17860477  .00015916  00000+0  44195-3 0  9999
2 57204  97.5104 198.0127 0006594 197.1015 163.0008 15.36959272158621
SITRO-AIS 11 (SHEFFER)  
1 57208U 23091AU  26128.20258374  .00016050  00000+0  44008-3 0  9997
2 57208  97.5101 198.2597 0006531 196.5949 163.5083 15.37350695158640
SITRO-AIS 25            
1 59066U 24039R   26128.17301050  .00005004  00000+0  38872-3 0  9999
2 59066  95.3917 207.6006 0147662 107.8167 253.9230 14.93229286118751
SITRO-AIS 26            
1 59067U 24039S   26128.16901325  .00004758  00000+0  37144-3 0  9996
2 59067  95.3917 207.5038 0147963 108.3643 253.3738 14.93031805118749
SITRO-AIS 27            
1 59068U 24039T   26128.21736366  .00004189  00000+0  32468-3 0  9996
2 59068  95.3915 207.7903 0146888 106.9428 254.7959 14.93440614118776
SITRO-AIS 28            
1 59071U 24039U   26128.19572772  .00003869  00000+0  29984-3 0  9999
2 59071  95.3920 207.8207 0146774 106.8326 254.9056 14.93478447118779
GRBBETA                 
1 60237U 24128C   26128.06270063  .00003123  00000+0  22121-3 0  9997
2 60237  61.9913 357.0075 0045830 126.2803 234.2537 15.06314577100228
OOV-CUBE (TUBSAT-30)    
1 60240U 24128F   26128.06268964  .00001952  00000+0  15810-3 0  9993
2 60240  61.9965   5.4639 0049392 124.9287 235.6459 15.02572515100083
ROBUSTA-3A (MEDITERRAN*)
1 60243U 24128J   26128.04113763  .00006250  00000+0  37530-3 0  9999
2 60243  61.9878 350.1460 0046709 120.1080 240.4657 15.11054510100353
LASARSAT                
1 62391U 24247Q   26127.37314596  .00021999  00000+0  47990-3 0  9997
2 62391  44.9730 131.1015 0004650  75.2515 284.8889 15.43901140 77001
CROCUBE                 
1 62394U 24247T   26127.99782806  .00028508  00000+0  58653-3 0  9992
2 62394  44.9715 125.5299 0004185  79.4440 280.6921 15.45492530 77128
FORESAIL-1 PRIME        
1 66778U 25276DS  26128.12926683  .00003871  00000+0  19181-3 0  9993
2 66778  97.4203 202.1424 0001293 207.0315 153.0852 15.18338004 24327
KNACKSAT-2              
1 67683U 98067XZ  26128.20106998  .00032348  00000+0  44986-3 0  9997
2 67683  51.6282 135.0537 0012709  50.2194 309.9915 15.56588676 14042
